OBJECT_NAME,OBJECT_ID,EPOCH,MEAN_MOTION,ECCENTRICITY,INCLINATION,RA_OF_ASC_NODE,ARG_OF_PERICENTER,MEAN_ANOMALY,EPHEMERIS_TYPE,CLASSIFICATION_TYPE,NORAD_CAT_ID,ELEMENT_SET_NO,REV_AT_EPOCH,BSTAR,MEAN_MOTION_DOT,MEAN_MOTION_DDOT
STARLINK-37593,2026-123C,2026-07-01T04:58:12.957024,15.80999686,.0001058,53.1565,171.5454,96.7202,263.3942,0,U,69355,999,425,.16189E-2,.333411E-2,0
STARLINK-37597,2026-123D,2026-07-01T02:32:00.453984,15.75305353,.0001265,53.1595,172.3461,96.6587,263.4577,0,U,69356,999,423,.12422E-2,.194783E-2,0
STARLINK-37598,2026-123E,2026-06-30T04:36:17.529120,15.81184312,.00039663,53.1563,176.5897,205.9333,154.1492,0,U,69357,999,409,.20996348E-2,.44195E-2,0
STARLINK-37602,2026-123F,2026-07-01T04:42:06.869376,15.75319566,.0001161,53.1583,172.2097,131.1907,228.9214,0,U,69358,999,424,.11248E-2,.176024E-2,0
STARLINK-37600,2026-123G,2026-07-01T04:36:02.549088,15.75335804,.0001862,53.1565,172.1810,138.8070,221.3091,0,U,69359,999,424,.1367E-2,.215241E-2,0
STARLINK-37599,2026-123H,2026-07-01T04:37:54.851808,15.80981336,.0001268,53.1559,171.4504,130.6054,229.5079,0,U,69360,999,425,.1151E-2,.233887E-2,0
STARLINK-37039,2026-123J,2026-06-30T23:28:46.232832,15.75532103,.0001236,53.1594,172.9741,79.1431,280.9728,0,U,69361,999,421,.2578E-2,.420157E-2,0
STARLINK-37040,2026-123K,2026-07-01T04:17:13.272576,15.81189537,.0002129,53.1562,171.3518,172.2531,187.8525,0,U,69362,999,425,.30987E-2,.670445E-2,0
STARLINK-37582,2026-123L,2026-06-30T23:48:53.258112,15.75228599,.0001609,53.1561,173.0637,43.1149,316.9997,0,U,69363,999,421,.16531E-2,.260606E-2,0
STARLINK-37309,2026-123M,2026-07-01T04:42:26.259264,15.75296980,.0004045,53.1571,171.4685,144.4919,215.6371,0,U,69364,999,425,.52688E-3,.81136E-3,0
STARLINK-37436,2026-123N,2026-06-30T23:24:59.711040,15.81073317,.0001571,53.1571,172.2147,135.1695,224.9455,0,U,69365,999,422,.2558E-2,.542154E-2,0
STARLINK-37581,2026-123P,2026-06-30T12:53:09.709152,15.80994910,.0001464,53.1557,174.4571,56.0004,304.1157,0,U,69366,999,415,.15601E-2,.320729E-2,0
STARLINK-37683,2026-123Q,2026-06-30T12:23:08.198304,15.75329960,.0001352,53.1550,175.0558,127.6787,232.4356,0,U,69367,999,414,.86796E-3,.13509E-2,0
STARLINK-37687,2026-123R,2026-07-01T00:00:00.998784,15.80907311,.0001247,53.1570,172.0395,102.3277,61.6632,0,U,69368,999,538,.12817E-3,.24709E-3,0
STARLINK-37631,2026-123S,2026-07-01T00:00:00.998784,15.75231248,.0001015,53.1589,172.2323,97.7276,332.5257,0,U,69369,999,543,.39424E-3,.60203E-3,0
STARLINK-37673,2026-123T,2026-07-01T04:48:58.637952,15.75279479,.0001091,53.1595,171.5019,106.6373,253.4767,0,U,69370,999,425,.18074E-2,.286503E-2,0
STARLINK-37645,2026-123U,2026-07-01T04:29:22.097184,15.75316536,.0001035,53.1582,171.4076,117.3150,242.7975,0,U,69371,999,425,.13427E-2,.211106E-2,0
STARLINK-37688,2026-123V,2026-07-01T04:00:03.000096,15.75313487,.0001078,53.1598,171.3462,86.6799,236.9723,0,U,69372,999,546,-.11231E-2,-.16994E-2,0
STARLINK-37685,2026-123W,2026-06-30T23:17:21.212160,15.81089034,.0001784,53.1575,172.1762,141.0655,219.0496,0,U,69373,999,422,.23407E-2,.493547E-2,0
STARLINK-37632,2026-123X,2026-06-30T11:07:59.759904,15.80982938,.00011277,53.1567,174.7063,138.1611,221.9498,0,U,69374,999,414,.12510895E-2,.254943E-2,0
STARLINK-37454,2026-123Y,2026-07-01T03:47:49.001856,15.81128001,.0001434,53.1574,171.2122,84.6201,275.4985,0,U,69375,999,425,.22404E-2,.472027E-2,0
STARLINK-37485,2026-123Z,2026-07-01T04:00:03.000096,15.75317210,.0000985,53.1574,171.4514,88.1324,184.0060,0,U,69376,999,555,-.11162E-2,-.168934E-2,0
STARLINK-37439,2026-123AA,2026-06-30T23:03:23.603040,15.81049585,.0002019,53.1571,172.1103,118.5486,241.5740,0,U,69377,999,422,.18921E-2,.393441E-2,0
STARLINK-37376,2026-123AB,2026-07-01T03:17:09.066336,15.75311221,.0001075,53.1593,171.8098,111.7801,248.3333,0,U,69378,999,424,.12235E-2,.191832E-2,0
STARLINK-37383,2026-123AC,2026-07-01T00:00:00.998784,15.75227437,.0001324,53.1597,172.0682,94.8848,52.6287,0,U,69379,999,552,.50859E-3,.78003E-3,0
STARLINK-37411,2026-123AD,2026-07-01T05:09:29.234016,15.80952266,.0000948,53.1569,170.8504,106.3861,253.7266,0,U,69380,999,426,.16078E-2,.330284E-2,0
STARLINK-37427,2026-123AE,2026-07-01T05:03:34.230240,15.81208445,.0002574,53.1567,170.8223,189.7500,170.3473,0,U,69381,999,426,.19994E-2,.42016E-2,0
QIANFAN-165,2026-124A,2026-07-01T04:16:22.954080,14.16014727,.0003616,88.9986,0.4587,103.7585,256.4006,0,U,69382,999,379,.45394E-4,.104E-5,0
QIANFAN-166,2026-124B,2026-07-01T03:55:05.346912,14.17062008,.0003061,88.9986,0.4567,100.1594,259.9939,0,U,69383,999,379,.45611E-4,.106E-5,0
QIANFAN-167,2026-124C,2026-07-01T04:02:55.413024,14.16528142,.0003447,88.9985,0.4571,135.1309,225.0158,0,U,69384,999,379,.36166E-4,.86E-6,0
