STARLINK-37593          
1 69355U 26123C   26182.20709441  .00333411  00000+0  16189-2 0  9999
2 69355  53.1565 171.5454 0001058  96.7202 263.3942 15.80999686  4253
STARLINK-37597          
1 69356U 26123D   26182.10556081  .00194783  00000+0  12422-2 0  9992
2 69356  53.1595 172.3461 0001265  96.6587 263.4577 15.75305353  4238
STARLINK-37598          
1 69357U 26123E   26181.19186955  .00441950  00000+0  20996-2 0  9996
2 69357  53.1563 176.5897 0003966 205.9333 154.1492 15.81184312  4090
STARLINK-37602          
1 69358U 26123F   26182.19591284  .00176024  00000+0  11248-2 0  9990
2 69358  53.1583 172.2097 0001161 131.1907 228.9214 15.75319566  4243
STARLINK-37600          
1 69359U 26123G   26182.19169617  .00215241  00000+0  13670-2 0  9998
2 69359  53.1565 172.1810 0001862 138.8070 221.3091 15.75335804  4242
STARLINK-37599          
1 69360U 26123H   26182.19299597  .00233887  00000+0  11510-2 0  9998
2 69360  53.1559 171.4504 0001268 130.6054 229.5079 15.80981336  4251
STARLINK-37039          
1 69361U 26123J   26181.97831288  .00420157  00000+0  25780-2 0  9995
2 69361  53.1594 172.9741 0001236  79.1431 280.9728 15.75532103  4217
STARLINK-37040          
1 69362U 26123K   26182.17862584  .00670445  00000+0  30987-2 0  9994
2 69362  53.1562 171.3518 0002129 172.2531 187.8525 15.81189537  4256
STARLINK-37582          
1 69363U 26123L   26181.99228308  .00260606  00000+0  16531-2 0  9997
2 69363  53.1561 173.0637 0001609  43.1149 316.9997 15.75228599  4219
STARLINK-37309          
1 69364U 26123M   26182.19613726  .00081136  00000+0  52688-3 0  9996
2 69364  53.1571 171.4685 0004045 144.4919 215.6371 15.75296980  4257
STARLINK-37436          
1 69365U 26123N   26181.97569110  .00542154  00000+0  25580-2 0  9991
2 69365  53.1571 172.2147 0001571 135.1695 224.9455 15.81073317  4226
STARLINK-37581          
1 69366U 26123P   26181.53691793  .00320729  00000+0  15601-2 0  9992
2 69366  53.1557 174.4571 0001464  56.0004 304.1157 15.80994910  4154
STARLINK-37683          
1 69367U 26123Q   26181.51606711  .00135090  00000+0  86796-3 0  9996
2 69367  53.1550 175.0558 0001352 127.6787 232.4356 15.75329960  4143
STARLINK-37687          
1 69368U 26123R   26182.00001156  .00024709  00000+0  12817-3 0  9991
2 69368  53.1570 172.0395 0001247 102.3277  61.6632 15.80907311  5383
STARLINK-37631          
1 69369U 26123S   26182.00001156  .00060203  00000+0  39424-3 0  9994
2 69369  53.1589 172.2323 0001015  97.7276 332.5257 15.75231248  5438
STARLINK-37673          
1 69370U 26123T   26182.20067868  .00286503  00000+0  18074-2 0  9990
2 69370  53.1595 171.5019 0001091 106.6373 253.4767 15.75279479  4257
STARLINK-37645          
1 69371U 26123U   26182.18706131  .00211106  00000+0  13427-2 0  9995
2 69371  53.1582 171.4076 0001035 117.3150 242.7975 15.75316536  4254
STARLINK-37688          
1 69372U 26123V   26182.16670139 -.00169940  00000+0 -11231-2 0  9993
2 69372  53.1598 171.3462 0001078  86.6799 236.9723 15.75313487  5466
STARLINK-37685          
1 69373U 26123W   26181.97038440  .00493547  00000+0  23407-2 0  9994
2 69373  53.1575 172.1762 0001784 141.0655 219.0496 15.81089034  4222
STARLINK-37632          
1 69374U 26123X   26181.46388611  .00254943  00000+0  12511-2 0  9996
2 69374  53.1567 174.7063 0001127 138.1611 221.9498 15.80982938  4145
STARLINK-37454          
1 69375U 26123Y   26182.15820604  .00472027  00000+0  22404-2 0  9994
2 69375  53.1574 171.2122 0001434  84.6201 275.4985 15.81128001  4254
STARLINK-37485          
1 69376U 26123Z   26182.16670139 -.00168934  00000+0 -11162-2 0  9992
2 69376  53.1574 171.4514 0000985  88.1324 184.0060 15.75317210  5555
STARLINK-37439          
1 69377U 26123AA  26181.96068985  .00393441  00000+0  18921-2 0  9991
2 69377  53.1571 172.1103 0002019 118.5486 241.5740 15.81049585  4223
STARLINK-37376          
1 69378U 26123AB  26182.13691049  .00191832  00000+0  12235-2 0  9997
2 69378  53.1593 171.8098 0001075 111.7801 248.3333 15.75311221  4241
STARLINK-37383          
1 69379U 26123AC  26182.00001156  .00078003  00000+0  50859-3 0  9997
2 69379  53.1597 172.0682 0001324  94.8848  52.6287 15.75227437  5528
STARLINK-37411          
1 69380U 26123AD  26182.21492169  .00330284  00000+0  16078-2 0  9996
2 69380  53.1569 170.8504 0000948 106.3861 253.7266 15.80952266  4265
STARLINK-37427          
1 69381U 26123AE  26182.21081285  .00420160  00000+0  19994-2 0  9993
2 69381  53.1567 170.8223 0002574 189.7500 170.3473 15.81208445  4262
QIANFAN-165             
1 69382U 26124A   26182.17804345  .00000104  00000+0  45394-4 0  9997
2 69382  88.9986   0.4587 0003616 103.7585 256.4006 14.16014727  3792
QIANFAN-166             
1 69383U 26124B   26182.16325633  .00000106  00000+0  45611-4 0  9999
2 69383  88.9986   0.4567 0003061 100.1594 259.9939 14.17062008  3795
QIANFAN-167             
1 69384U 26124C   26182.16869691  .00000086  00000+0  36166-4 0  9999
2 69384  88.9985   0.4571 0003447 135.1309 225.0158 14.16528142  3792
